NORAD_CAT_ID,OBJECT_NAME,OBJECT_TYPE,EPOCH,MEAN_MOTION,ECCENTRICITY,INCLINATION,RA_OF_ASC_NODE,ARG_OF_PERICENTER,MEAN_ANOMALY,BSTAR,MEAN_MOTION_DOT,MEAN_MOTION_DDOT,TLE_LINE0,TLE_LINE1,TLE_LINE2,SEMIMAJOR_AXIS,PERIOD,APOGEE,PERIGEE,DECAYED
55945.0,STARLINK-5925,PAYLOAD,2023-05-04 21:25:23,15.69922385,0.0003546,70.0014,45.7624,260.8541,99.2254,2.7932e-05,3.147e-05,0.0,0 STARLINK-5925,1 55945U 23037AH  23124.89263690  .00003147  00000-0  27932-4 0  9990,2 55945  70.0014  45.7624 0003546 260.8541  99.2254 15.69922385  8081,6737.256,91.724,361.51,356.732,0.0
55945.0,STARLINK-5925,PAYLOAD,2023-05-05 20:21:40,15.69929019,0.0003468,70.0022,43.0786,259.7448,100.3356,9.4384e-06,9.23e-06,0.0,0 STARLINK-5925,1 55945U 23037AH  23125.84838425  .00000923  00000-0  94384-5 0  9995,2 55945  70.0022  43.0786 0003468 259.7448 100.3356 15.69929019  7892,6737.237,91.724,361.439,356.766,0.0
55945.0,STARLINK-5925,PAYLOAD,2023-05-05 21:53:25,15.69927553,0.0003382,70.0023,42.8991,258.5409,101.5407,1.6588e-05,1.783e-05,0.0,0 STARLINK-5925,1 55945U 23037AH  23125.91210171  .00001783  00000-0  16588-4 0  9999,2 55945  70.0023  42.8991 0003382 258.5409 101.5407 15.69927553  8248,6737.241,91.724,361.385,356.828,0.0
55945.0,STARLINK-5925,PAYLOAD,2023-05-06 04:00:25,15.6993243,0.0003672,70.0006,42.1806,266.8756,93.2019,1.9093e-05,2.084e-05,0.0,0 STARLINK-5925,1 55945U 23037AH  23126.16696592  .00002084  00000-0  19093-4 0  9991,2 55945  70.0006  42.1806 0003672 266.8756  93.2019 15.69932430  7948,6737.227,91.724,361.566,356.618,0.0
55945.0,STARLINK-5925,PAYLOAD,2023-05-07 04:28:28,15.69914491,0.0003449,70.0021,39.3158,262.0477,98.0328,-1.4199e-05,-1.919e-05,0.0,0 STARLINK-5925,1 55945U 23037AH  23127.18643990 -.00001919  00000-0 -14199-4 0  9998,2 55945  70.0021  39.3158 0003449 262.0477  98.0328 15.69914491  8442,6737.279,91.725,361.467,356.82,0.0
55945.0,STARLINK-5925,PAYLOAD,2023-05-07 21:17:43,15.69951916,0.0003368,70.0021,37.3455,244.268,115.8168,4.9207e-05,5.715e-05,0.0,0 STARLINK-5925,1 55945U 23037AH  23127.88731051  .00005715  00000-0  49207-4 0  9995,2 55945  70.0021  37.3455 0003368 244.2680 115.8168 15.69951916  8553,6737.172,91.723,361.306,356.767,0.0
55945.0,STARLINK-5925,PAYLOAD,2023-05-08 03:24:45,15.69929443,0.0003539,70.0013,36.6287,266.757,93.3221,1.4598e-05,1.543e-05,0.0,0 STARLINK-5925,1 55945U 23037AH  23128.14218797  .00001543  00000-0  14598-4 0  9992,2 55945  70.0013  36.6287 0003539 266.7570  93.3221 15.69929443  8590,6737.236,91.724,361.485,356.717,0.0
55945.0,STARLINK-5925,PAYLOAD,2023-05-08 20:14:01,15.6991971,0.0003277,70.0022,34.6594,261.4025,98.68,3.718e-05,4.259e-05,0.0,0 STARLINK-5925,1 55945U 23037AH  23128.84307689  .00004259  00000-0  37180-4 0  9997,2 55945  70.0022  34.6594 0003277 261.4025  98.6800 15.69919710  8705,6737.264,91.724,361.337,356.921,0.0
55945.0,STARLINK-5925,PAYLOAD,2023-05-09 03:52:47,15.69925506,0.0003614,70.0015,33.7624,260.3836,99.6952,3.6833e-05,4.219e-05,0.0,0 STARLINK-5925,1 55945U 23037AH  23129.16165631  .00004219  00000-0  36833-4 0  9992,2 55945  70.0015  33.7624 0003614 260.3836  99.6952 15.69925506  8411,6737.247,91.724,361.547,356.677,0.0
55945.0,STARLINK-5925,PAYLOAD,2023-05-10 02:49:04,15.69923428,0.0003575,70.0004,31.0749,265.6079,94.4708,2.7073e-05,3.044e-05,0.0,0 STARLINK-5925,1 55945U 23037AH  23130.11740958  .00003044  00000-0  27073-4 0  9991,2 55945  70.0004  31.0749 0003575 265.6079  94.4708 15.69923428  8560,6737.253,91.724,361.527,356.71,0.0
55945.0,STARLINK-5925,PAYLOAD,2023-05-10 19:38:20,15.69925215,0.0003699,70.0001,29.1046,267.6098,92.4675,2.5684e-05,2.877e-05,0.0,0 STARLINK-5925,1 55945U 23037AH  23130.81829209  .00002877  00000-0  25684-4 0  9994,2 55945  70.0001  29.1046 0003699 267.6098  92.4675 15.69925215  8674,6737.248,91.724,361.605,356.621,0.0
55945.0,STARLINK-5925,PAYLOAD,2023-05-11 01:45:21,15.69918636,0.0003848,70.0003,28.3884,269.8993,90.1762,-7.6573e-06,-1.133e-05,0.0,0 STARLINK-5925,1 55945U 23037AH  23131.07316237 -.00001133  00000-0 -76573-5 0  9995,2 55945  70.0003  28.3884 0003848 269.8993  90.1762 15.69918636  9055,6737.267,91.724,361.724,356.539,0.0
55945.0,STARLINK-5925,PAYLOAD,2023-05-11 03:17:06,15.6991524,0.0003817,69.9998,28.2084,268.6475,91.4283,-1.6266e-05,-2.168e-05,0.0,0 STARLINK-5925,1 55945U 23037AH  23131.13688084 -.00002168  00000-0 -16266-4 0  9995,2 55945  69.9998  28.2084 0003817 268.6475  91.4283 15.69915240  8727,6737.276,91.725,361.713,356.57,0.0
55945.0,STARLINK-5925,PAYLOAD,2023-05-11 23:09:52,15.69940755,0.0003485,70.0005,25.8805,269.6268,90.4528,4.1894e-05,4.831e-05,0.0,0 STARLINK-5925,1 55945U 23037AH  23131.96518718  .00004831  00000-0  41894-4 0  9994,2 55945  70.0005  25.8805 0003485 269.6268  90.4528 15.69940755  9197,6737.203,91.723,361.416,356.721,0.0
55945.0,STARLINK-5925,PAYLOAD,2023-05-12 02:13:22,15.69935993,0.0003778,69.9983,25.5213,268.0334,92.0429,2.6897e-05,3.024e-05,0.0,0 STARLINK-5925,1 55945U 23037AH  23132.09261826  .00003024  00000-0  26897-4 0  9993,2 55945  69.9983  25.5213 0003778 268.0334  92.0429 15.69935993  8871,6737.217,91.723,361.627,356.537,0.0
55945.0,STARLINK-5925,PAYLOAD,2023-05-12 17:30:54,15.69918276,0.0003371,69.9994,23.7305,265.504,94.5771,1.6029e-05,1.715e-05,0.0,0 STARLINK-5925,1 55945U 23037AH  23132.72979847  .00001715  00000-0  16029-4 0  9993,2 55945  69.9994  23.7305 0003371 265.5040  94.5771 15.69918276  9312,6737.268,91.725,361.404,356.862,0.0
55945.0,STARLINK-5925,PAYLOAD,2023-05-13 02:41:24,15.69930901,0.0003208,70.0004,22.656,268.1369,91.9459,2.6126e-05,2.931e-05,0.0,0 STARLINK-5925,1 55945U 23037AH  23133.11209310  .00002931  00000-0  26126-4 0  9998,2 55945  70.0004  22.6560 0003208 268.1369  91.9459 15.69930901  9379,6737.232,91.724,361.258,356.935,0.0
55945.0,STARLINK-5925,PAYLOAD,2023-05-13 19:30:41,15.69924366,0.0003103,70.0015,20.6836,264.3561,95.7281,-1.2532e-05,-1.719e-05,0.0,0 STARLINK-5925,1 55945U 23037AH  23133.81298127 -.00001719  00000-0 -12532-4 0  9990,2 55945  70.0015  20.6836 0003103 264.3561  95.7281 15.69924366  9149,6737.25,91.724,361.206,357.025,0.0
55945.0,STARLINK-5925,PAYLOAD,2023-05-14 01:37:41,15.69937345,0.0003239,70.0011,19.9671,262.0967,97.9862,2.5964e-05,2.912e-05,0.0,0 STARLINK-5925,1 55945U 23037AH  23134.06784180  .00002912  00000-0  25964-4 0  9994,2 55945  70.0011  19.9671 0003239 262.0967  97.9862 15.69937345  9182,6737.213,91.723,361.26,356.896,0.0
55945.0,STARLINK-5925,PAYLOAD,2023-05-14 19:58:44,15.69909288,0.0003414,70.0011,17.82,266.5334,93.5471,-1.6328e-05,-2.174e-05,0.0,0 STARLINK-5925,1 55945U 23037AH  23134.83245587 -.00002174  00000-0 -16328-4 0  9998,2 55945  70.0011  17.8200 0003414 266.5334  93.5471 15.69909288  9306,6737.294,91.725,361.459,356.858,0.0
55945.0,STARLINK-5925,PAYLOAD,2023-05-15 00:33:59,15.69922429,0.000302,70.0008,17.2821,258.015,102.0707,5.5721e-06,4.57e-06,0.0,0 STARLINK-5925,1 55945U 23037AH  23135.02360131  .00000457  00000-0  55721-5 0  9994,2 55945  70.0008  17.2821 0003020 258.0150 102.0707 15.69922429  9670,6737.256,91.724,361.156,357.086,0.0
55945.0,STARLINK-5925,PAYLOAD,2023-05-15 09:44:29,15.69935376,0.0003226,70.0017,16.2064,260.8826,99.2005,7.2786e-06,6.63e-06,0.0,0 STARLINK-5925,1 55945U 23037AH  23135.40589346  .00000663  00000-0  72786-5 0  9996,2 55945  70.0017  16.2064 0003226 260.8826  99.2005 15.69935376  9737,6737.219,91.724,361.257,356.91,0.0
55945.0,STARLINK-5925,PAYLOAD,2023-05-15 17:23:15,15.69917036,0.000341,70.0013,15.3099,253.1261,106.9561,-1.3645e-05,-1.853e-05,0.0,0 STARLINK-5925,1 55945U 23037AH  23135.72448695 -.00001853  00000-0 -13645-4 0  9994,2 55945  70.0013  15.3099 0003410 253.1261 106.9561 15.69917036  9785,6737.271,91.725,361.434,356.839,0.0
55945.0,STARLINK-5925,PAYLOAD,2023-05-16 01:02:00,15.69926225,0.0003534,70.0012,14.415,250.2698,109.8117,3.9897e-06,2.67e-06,0.0,0 STARLINK-5925,1 55945U 23037AH  23136.04306594  .00000267  00000-0  39897-5 0  9995,2 55945  70.0012  14.4150 0003534 250.2698 109.8117 15.69926225  9836,6737.245,91.724,361.491,356.729,0.0
55945.0,STARLINK-5925,PAYLOAD,2023-05-16 14:47:46,15.69927433,0.0003135,70.0014,12.8035,252.3881,107.6972,4.231e-05,4.878e-05,0.0,0 STARLINK-5925,1 55945U 23037AH  23136.61651508  .00004878  00000-0  42310-4 0  9991,2 55945  70.0014  12.8035 0003135 252.3881 107.6972 15.69927433  9585,6737.242,91.724,361.219,356.994,0.0
55945.0,STARLINK-5925,PAYLOAD,2023-05-16 22:26:32,15.69924123,0.0003248,69.999,11.9069,251.7342,108.35,3.2932e-05,3.749e-05,0.0,0 STARLINK-5925,1 55945U 23037AH  23136.93509750  .00003749  00000-0  32932-4 0  9992,2 55945  69.9990  11.9069 0003248 251.7342 108.3500 15.69924123  9636,6737.251,91.724,361.304,356.928,0.0
55945.0,STARLINK-5925,PAYLOAD,2023-05-17 01:30:04,15.69898837,0.0002916,69.9995,11.5498,247.1736,112.9152,3.4527e-06,2.02e-06,0.0,0 STARLINK-5925,1 55945U 23037AH  23137.06255229  .00000202  00000-0  34527-5 0  9990,2 55945  69.9995  11.5498 0002916 247.1736 112.9152 15.69898837  9995,6737.323,91.726,361.153,357.224,0.0
55945.0,STARLINK-5925,PAYLOAD,2023-05-17 18:19:19,15.69921696,0.0003352,69.9994,9.5797,251.3886,108.6946,2.7156e-05,3.053e-05,0.0,0 STARLINK-5925,1 55945U 23037AH  23137.76341764  .00003053  00000-0  27156-4 0  9993,2 55945  69.9994   9.5797 0003352 251.3886 108.6946 15.69921696 10109,6737.258,91.724,361.381,356.865,0.0
55945.0,STARLINK-5925,PAYLOAD,2023-05-18 00:26:19,15.69920995,0.0003503,69.9986,8.8629,252.0865,107.9949,2.3561e-05,2.621e-05,0.0,0 STARLINK-5925,1 55945U 23037AH  23138.01828640  .00002621  00000-0  23561-4 0  9991,2 55945  69.9986   8.8629 0003503 252.0865 107.9949 15.69920995  9800,6737.26,91.724,361.485,356.765,0.0
55945.0,STARLINK-5925,PAYLOAD,2023-05-18 14:12:05,15.69927591,0.0003389,69.999,7.2511,249.0311,111.0523,9.7365e-06,9.58e-06,0.0,0 STARLINK-5925,1 55945U 23037AH  23138.59173309  .00000958  00000-0  97365-5 0  9994,2 55945  69.9990   7.2511 0003389 249.0311 111.0523 15.69927591  9894,6737.241,91.724,361.389,356.823,0.0
